NORAD_CAT_ID,OBJECT_NAME,OBJECT_TYPE,EPOCH,MEAN_MOTION,ECCENTRICITY,INCLINATION,RA_OF_ASC_NODE,ARG_OF_PERICENTER,MEAN_ANOMALY,BSTAR,MEAN_MOTION_DOT,MEAN_MOTION_DDOT,TLE_LINE0,TLE_LINE1,TLE_LINE2,SEMIMAJOR_AXIS,PERIOD,APOGEE,PERIGEE,DECAYED
37853,RAX-2,PAYLOAD,2020-07-28 11:45:08,15.04242872,0.0167599,101.7122,309.555,330.3769999999999,28.8027,3.9824000000000004e-05,5.91e-06,0.0,0 RAX-2,1 37853U 11061D   20210.48968521 +.00000591 +00000-0 +39824-4 0  9998,2 37853 101.7122 309.5550 0167599 330.3770 028.8027 15.04242872477009,6931.968000000003,95.729,670.012,437.654,0.0
37853,RAX-2,PAYLOAD,2020-07-29 03:42:56,15.04243829,0.016759,101.7122,310.5596,328.4096,30.7138,4.0553e-05,6.04e-06,0.0,0 RAX-2,1 37853U 11061D   20211.15482424  .00000604  00000-0  40553-4 0  9992,2 37853 101.7122 310.5596 0167590 328.4096  30.7138 15.04243829477582,6931.965,95.729,670.003,437.657,0.0
37853,RAX-2,PAYLOAD,2020-07-29 05:18:43,15.04243876,0.0167586,101.7122,310.66,328.2123,30.9056,4.0146e-05,5.97e-06,0.0,0 RAX-2,1 37853U 11061D   20211.22133816 +.00000597 +00000-0 +40146-4 0  9997,2 37853 101.7122 310.6600 0167586 328.2123 030.9056 15.04243876477115,6931.965,95.729,670.0,437.66,0.0
37853,RAX-2,PAYLOAD,2020-07-29 21:16:31,15.04244628,0.0167567,101.7123,311.6646,326.2469,32.8161,3.8452e-05,5.64e-06,0.0,0 RAX-2,1 37853U 11061D   20211.88647706 +.00000564 +00000-0 +38452-4 0  9998,2 37853 101.7123 311.6646 0167567 326.2469 032.8161 15.04244628477212,6931.9619999999995,95.729,669.9839999999998,437.671,0.0
37853,RAX-2,PAYLOAD,2020-07-30 11:38:32,15.04245584,0.0167554,101.7124,312.5688,324.4761,34.5385,3.850800000000001e-05,5.65e-06,0.0,0 RAX-2,1 37853U 11061D   20212.48510165  .00000565  00000-0  38508-4 0  9996,2 37853 101.7124 312.5688 0167554 324.4761  34.5385 15.04245584477781,6931.959,95.729,669.972,437.67699999999996,0.0
37853,RAX-2,PAYLOAD,2020-07-30 19:37:26,15.042459699999998,0.0167549,101.7124,313.0711,323.4924,35.4957,3.7165e-05,5.400000000000002e-06,0.0,0 RAX-2,1 37853U 11061D   20212.81767088 +.00000540 +00000-0 +37165-4 0  9992,2 37853 101.7124 313.0711 0167549 323.4924 035.4957 15.04245970477355,6931.958000000001,95.729,669.967,437.67900000000003,0.0
37853,RAX-2,PAYLOAD,2020-07-31 11:35:14,15.04247069,0.016753,101.7125,314.0757,321.5234,37.4127,3.7183e-05,5.400000000000002e-06,0.0,0 RAX-2,1 37853U 11061D   20213.48280892 +.00000540 +00000-0 +37183-4 0  9999,2 37853 101.7125 314.0757 0167530 321.5234 037.4127 15.04247069477453,6931.955,95.729,669.951,437.689,0.0
37853,RAX-2,PAYLOAD,2020-07-31 21:09:55,15.04247674,0.0167521,101.7126,314.6784,320.3426,38.563,3.6983e-05,5.36e-06,0.0,0 RAX-2,1 37853U 11061D   20213.88189176  .00000536  00000-0  36983-4 0  9998,2 37853 101.7126 314.6784 0167521 320.3426  38.5630 15.04247674477992,6931.953,95.729,669.943,437.69300000000004,0.0
37853,RAX-2,PAYLOAD,2020-08-01 05:08:49,15.04248051,0.0167521,101.7126,315.1807,319.3581,39.5224,3.5646e-05,5.0999999999999995e-06,0.0,0 RAX-2,1 37853U 11061D   20214.21446076 +.00000510 +00000-0 +35646-4 0  9998,2 37853 101.7126 315.1807 0167521 319.3581 039.5224 15.04248051477567,6931.9519999999975,95.729,669.942,437.69199999999995,0.0
37853,RAX-2,PAYLOAD,2020-08-01 21:06:37,15.04248673,0.01675,101.7127,316.1854,317.3906,41.441,3.1733e-05,4.36e-06,0.0,0 RAX-2,1 37853U 11061D   20214.87959860 +.00000436 +00000-0 +31733-4 0  9990,2 37853 101.7127 316.1854 0167500 317.3906 041.4410 15.04248673477667,6931.95,95.729,669.925,437.705,0.0
37853,RAX-2,PAYLOAD,2020-08-02 05:05:31,15.04249177,0.0167495,101.7127,316.6877,316.4055,42.4021,3.1893e-05,4.39e-06,0.0,0 RAX-2,1 37853U 11061D   20215.21216748 +.00000439 +00000-0 +31893-4 0  9990,2 37853 101.7127 316.6877 0167495 316.4055 042.4021 15.04249177478193,6931.948,95.729,669.92,437.707,0.0
37853,RAX-2,PAYLOAD,2020-08-02 17:51:45,15.04249816,0.0167486,101.7128,317.4914,314.8312,43.9388,2.9911e-05,4.01e-06,0.0,0 RAX-2,1 37853U 11061D   20215.74427752 +.00000401 +00000-0 +29911-4 0  9994,2 37853 101.7128 317.4914 0167486 314.8312 043.9388 15.04249816477790,6931.946,95.729,669.9119999999998,437.711,0.0
37853,RAX-2,PAYLOAD,2020-08-03 06:37:59,15.04250754,0.016747799999999997,101.7129,318.2951,313.2549,45.4785,3.0686e-05,4.16e-06,0.0,0 RAX-2,1 37853U 11061D   20216.27638727 +.00000416 +00000-0 +30686-4 0  9996,2 37853 101.7129 318.2951 0167478 313.2549 045.4785 15.04250754478351,6931.944,95.729,669.903,437.714,0.0
37853,RAX-2,PAYLOAD,2020-08-03 17:48:27,15.04251282,0.0167467,101.7129,318.9983,311.8778,46.8245,2.8561e-05,3.75e-06,0.0,0 RAX-2,1 37853U 11061D   20216.74198335 +.00000375 +00000-0 +28561-4 0  9997,2 37853 101.7129 318.9983 0167467 311.8778 046.8245 15.04251282477946,6931.941999999999,95.729,669.8939999999999,437.72,0.0
37853,RAX-2,PAYLOAD,2020-08-04 06:34:41,15.04252073,0.0167459,101.7129,319.8021,310.3018,48.3659,2.8695e-05,3.78e-06,0.0,0 RAX-2,1 37853U 11061D   20217.27409316 +.00000378 +00000-0 +28695-4 0  9991,2 37853 101.7129 319.8021 0167459 310.3018 048.3659 15.04252073478026,6931.939,95.729,669.8860000000002,437.723,0.0
37853,RAX-2,PAYLOAD,2020-08-05 03:19:49,15.04252838,0.016744299999999997,101.7129,321.1081,307.7395,50.8742,2.4149000000000002e-05,2.91e-06,0.0,0 RAX-2,1 37853U 11061D   20218.13877157  .00000291  00000-0  24149-4 0  9993,2 37853 101.7129 321.1081 0167443 307.7395  50.8742 15.04252838478636,6931.937,95.729,669.873,437.73199999999997,0.0
37853,RAX-2,PAYLOAD,2020-08-05 12:54:30,15.04253017,0.016743200000000003,101.7129,321.7109,306.557,52.0328,2.1083e-05,2.33e-06,0.0,0 RAX-2,1 37853U 11061D   20218.53785411 +.00000233 +00000-0 +21083-4 0  9998,2 37853 101.7129 321.7109 0167432 306.5570 052.0328 15.04253017478211,6931.937,95.729,669.8639999999998,437.73900000000003,0.0
37853,RAX-2,PAYLOAD,2020-08-06 04:52:18,15.04253599,0.0167433,101.7128,322.7155,304.5869,53.9643,1.8718e-05,1.87e-06,0.0,0 RAX-2,1 37853U 11061D   20219.20299153  .00000187  00000-0  18718-4 0  9995,2 37853 101.7128 322.7155 0167433 304.5869  53.9643 15.04253599478790,6931.935,95.729,669.863,437.736,0.0
37853,RAX-2,PAYLOAD,2020-08-06 08:03:52,15.04253718,0.016743200000000003,101.7128,322.9165,304.1928,54.351000000000006,1.8274e-05,1.79e-06,0.0,0 RAX-2,1 37853U 11061D   20219.33601903 +.00000179 +00000-0 +18274-4 0  9997,2 37853 101.7128 322.9165 0167432 304.1928 054.3510 15.04253718478335,6931.934,95.729,669.862,437.73699999999997,0.0
37853,RAX-2,PAYLOAD,2020-08-07 06:24:47,15.04254623,0.016743,101.7127,324.3229,301.435,57.0584,1.7531e-05,1.65e-06,0.0,0 RAX-2,1 37853U 11061D   20220.26721174  .00000165  00000-0  17531-4 0  9994,2 37853 101.7127 324.3229 0167430 301.4350  57.0584 15.04254623478953,6931.932,95.728,669.8580000000002,437.735,0.0
37853,RAX-2,PAYLOAD,2020-08-07 20:46:48,15.04254951,0.016743,101.7127,325.2271,299.6625,58.8004,1.5829e-05,1.32e-06,0.0,0 RAX-2,1 37853U 11061D   20220.86583599 +.00000132 +00000-0 +15829-4 0  9999,2 37853 101.7127 325.2271 0167430 299.6625 058.8004 15.04254951478560,6931.931,95.728,669.857,437.73400000000004,0.0
37853,RAX-2,PAYLOAD,2020-08-08 09:33:02,15.0425565,0.016743900000000003,101.7126,326.0308,298.0846,60.3524,1.8180999999999998e-05,1.77e-06,0.0,0 RAX-2,1 37853U 11061D   20221.39794629  .00000177  00000-0  18181-4 0  9999,2 37853 101.7126 326.0308 0167439 298.0846  60.3524 15.04255650479121,6931.928000000001,95.728,669.8610000000001,437.726,0.0
37853,RAX-2,PAYLOAD,2020-08-08 20:43:30,15.04255985,0.0167438,101.7126,326.7340000000001,296.7035,61.711999999999996,1.8379e-05,1.81e-06,0.0,0 RAX-2,1 37853U 11061D   20221.86354312 +.00000181 +00000-0 +18379-4 0  9996,2 37853 101.7126 326.7340 0167438 296.7035 061.7120 15.04255985478710,6931.927,95.728,669.8589999999998,437.726,0.0
37853,RAX-2,PAYLOAD,2020-08-09 12:41:18,15.04256759,0.016744799999999997,101.7126,327.7386,294.7311,63.6553,2.1771e-05,2.45e-06,0.0,0 RAX-2,1 37853U 11061D   20222.52868145 +.00000245 +00000-0 +21771-4 0  9995,2 37853 101.7126 327.7386 0167448 294.7311 063.6553 15.04256759478819,6931.925,95.728,669.8639999999998,437.716,0.0
37853,RAX-2,PAYLOAD,2020-08-09 20:40:12,15.04256964,0.0167454,101.7126,328.2409,293.7453,64.6271,2.2142e-05,2.53e-06,0.0,0 RAX-2,1 37853U 11061D   20222.86125082 +.00000253 +00000-0 +22142-4 0  9990,2 37853 101.7126 328.2409 0167454 293.7453 064.6271 15.04256964478865,6931.924,95.728,669.867,437.712,0.0
37853,RAX-2,PAYLOAD,2020-08-10 09:26:26,15.04257521,0.0167464,101.7125,329.0446,292.168,66.1834,2.5185e-05,3.11e-06,0.0,0 RAX-2,1 37853U 11061D   20223.39336186 +.00000311 +00000-0 +25185-4 0  9993,2 37853 101.7125 329.0446 0167464 292.1680 066.1834 15.04257521478941,6931.9230000000025,95.728,669.872,437.70300000000003,0.0
37853,RAX-2,PAYLOAD,2020-08-11 04:35:48,15.04258526,0.016747099999999997,101.7125,330.2502,289.8036,68.5187,3.0891999999999995e-05,4.19e-06,0.0,0 RAX-2,1 37853U 11061D   20224.19152845  .00000419  00000-0  30892-4 0  9990,2 37853 101.7125 330.2502 0167471 289.8036  68.5187 15.04258526479544,6931.92,95.728,669.8739999999998,437.695,0.0
37853,RAX-2,PAYLOAD,2020-08-11 06:11:34,15.04258614,0.0167472,101.7125,330.3506,289.6065,68.7136,3.1308e-05,4.27e-06,0.0,0 RAX-2,1 37853U 11061D   20224.25804233 +.00000427 +00000-0 +31308-4 0  9994,2 37853 101.7125 330.3506 0167472 289.6065 068.7136 15.04258614479072,6931.919,95.728,669.875,437.694,0.0
37853,RAX-2,PAYLOAD,2020-08-11 20:33:36,15.04259474,0.016747099999999997,101.7126,331.2548,287.8325,70.468,3.6136999999999996e-05,5.19e-06,0.0,0 RAX-2,1 37853U 11061D   20224.85666734 +.00000519 +00000-0 +36137-4 0  9999,2 37853 101.7126 331.2548 0167471 287.8325 070.4680 15.04259474479166,6931.9169999999995,95.728,669.8710000000002,437.69199999999995,0.0
37853,RAX-2,PAYLOAD,2020-08-12 09:19:50,15.04260183,0.0167484,101.7126,332.0585,286.2587,72.0257,3.9511e-05,5.84e-06,0.0,0 RAX-2,1 37853U 11061D   20225.38877850  .00000584  00000-0  39511-4 0  9992,2 37853 101.7126 332.0585 0167484 286.2587  72.0257 15.04260183479722,6931.915,95.728,669.878,437.681,0.0
